NORAD_CAT_ID,OBJECT_NAME,OBJECT_TYPE,EPOCH,MEAN_MOTION,ECCENTRICITY,INCLINATION,RA_OF_ASC_NODE,ARG_OF_PERICENTER,MEAN_ANOMALY,BSTAR,MEAN_MOTION_DOT,MEAN_MOTION_DDOT,TLE_LINE0,TLE_LINE1,TLE_LINE2,SEMIMAJOR_AXIS,PERIOD,APOGEE,PERIGEE,DECAYED
53724.0,STARLINK-4663,PAYLOAD,2023-06-02 04:26:29,15.08841761,0.0001114,53.2161,114.7359,96.9843,263.1276,4.5064e-05,4.29e-06,0.0,0 STARLINK-4663,1 53724U 22107AA  23153.18506201  .00000429  00000-0  45064-4 0  9998,2 53724  53.2161 114.7359 0001114  96.9843 263.1276 15.08841761 41718,6917.875,95.437,540.511,538.969,0.0
53724.0,STARLINK-4663,PAYLOAD,2023-06-03 02:41:54,15.08830606,0.0001331,53.2175,110.579,117.853,242.2597,4.7694e-06,-2.12e-06,0.0,0 STARLINK-4663,1 53724U 22107AA  23154.11243403 -.00000212  00000-0  47694-5 0  9997,2 53724  53.2175 110.5790 0001331 117.8530 242.2597 15.08830606 41397,6917.909,95.438,540.695,538.853,0.0
53724.0,STARLINK-4663,PAYLOAD,2023-06-03 04:17:17,15.08828868,0.0001195,53.2168,110.2774,105.9832,254.1292,1.8686e-05,1e-07,0.0,0 STARLINK-4663,1 53724U 22107AA  23154.17867540  .00000010  00000-0  18686-4 0  9990,2 53724  53.2168 110.2774 0001195 105.9832 254.1292 15.08828868 41862,6917.914,95.438,540.606,538.953,0.0
53724.0,STARLINK-4663,PAYLOAD,2023-06-04 02:32:41,15.08838156,0.0001256,53.2172,106.1139,110.2536,249.8591,6.3152e-05,7.17e-06,0.0,0 STARLINK-4663,1 53724U 22107AA  23155.10603176  .00000717  00000-0  63152-4 0  9999,2 53724  53.2172 106.1139 0001256 110.2536 249.8591 15.08838156 41543,6917.886,95.438,540.62,538.882,0.0
53724.0,STARLINK-4663,PAYLOAD,2023-06-04 05:43:27,15.08841865,0.00012,53.2169,105.5192,102.2453,257.8673,7.7425e-05,9.45e-06,0.0,0 STARLINK-4663,1 53724U 22107AA  23155.23850932  .00000945  00000-0  77425-4 0  9998,2 53724  53.2169 105.5192 0001200 102.2453 257.8673 15.08841865 42024,6917.875,95.437,540.57,538.91,0.0
53724.0,STARLINK-4663,PAYLOAD,2023-06-04 20:01:55,15.08837878,0.0001121,53.2168,102.8424,96.6801,263.4319,0.00011184,1.492e-05,0.0,0 STARLINK-4663,1 53724U 22107AA  23155.83467158  .00001492  00000-0  11184-3 0  9995,2 53724  53.2168 102.8424 0001121  96.6801 263.4319 15.08837878 42115,6917.887,95.438,540.527,538.976,0.0
53724.0,STARLINK-4663,PAYLOAD,2023-06-05 03:58:51,15.08841657,0.0001116,53.2167,101.3552,93.8125,266.2995,0.00013257,1.823e-05,0.0,0 STARLINK-4663,1 53724U 22107AA  23156.16586940  .00001823  00000-0  13257-3 0  9994,2 53724  53.2167 101.3552 0001116  93.8125 266.2995 15.08841657 41707,6917.875,95.437,540.512,538.968,0.0
53724.0,STARLINK-4663,PAYLOAD,2023-06-05 05:34:14,15.08844075,0.0001126,53.2167,101.0576,94.5107,265.6014,0.00015011,2.102e-05,0.0,0 STARLINK-4663,1 53724U 22107AA  23156.23210743  .00002102  00000-0  15011-3 0  9998,2 53724  53.2167 101.0576 0001126  94.5107 265.6014 15.08844075 42173,6917.868,95.437,540.512,538.954,0.0
53724.0,STARLINK-4663,PAYLOAD,2023-06-05 19:52:43,15.08837968,0.0001303,53.2172,98.381,104.2581,255.8556,-1.8335e-05,-5.8e-06,0.0,0 STARLINK-4663,1 53724U 22107AA  23156.82827768 -.00000580  00000-0 -18335-4 0  9997,2 53724  53.2172  98.3810 0001303 104.2581 255.8556 15.08837968 42265,6917.887,95.438,540.653,538.85,0.0
53724.0,STARLINK-4663,PAYLOAD,2023-06-06 00:38:52,15.08822159,0.0001221,53.2173,97.4885,98.045,262.0681,0.00023948,3.524e-05,0.0,0 STARLINK-4663,1 53724U 22107AA  23157.02699866  .00003524  00000-0  23948-3 0  9990,2 53724  53.2173  97.4885 0001221  98.0450 262.0681 15.08822159 41839,6917.935,95.439,540.645,538.955,0.0
53724.0,STARLINK-4663,PAYLOAD,2023-06-06 05:25:02,15.08801956,0.0001447,53.2171,96.5966,96.6114,263.5043,0.00058789,9.071e-05,0.0,0 STARLINK-4663,1 53724U 22107AA  23157.22572358  .00009071  00000-0  58789-3 0  9992,2 53724  53.2171  96.5966 0001447  96.6114 263.5043 15.08801956 41861,6917.997,95.44,540.863,538.861,0.0
53724.0,STARLINK-4663,PAYLOAD,2023-06-06 13:21:57,15.08842215,0.0001149,53.2168,95.1104,88.4347,271.6776,2.5807e-05,1.23e-06,0.0,0 STARLINK-4663,1 53724U 22107AA  23157.55691357  .00000123  00000-0  25807-4 0  9994,2 53724  53.2168  95.1104 0001149  88.4347 271.6776 15.08842215 41914,6917.874,95.437,540.533,538.944,0.0
53724.0,STARLINK-4663,PAYLOAD,2023-06-07 05:15:47,15.08851411,0.0001258,53.217,92.1352,90.1677,269.9459,7.5381e-05,9.12e-06,0.0,0 STARLINK-4663,1 53724U 22107AA  23158.21930455  .00000912  00000-0  75381-4 0  9991,2 53724  53.2170  92.1352 0001258  90.1677 269.9459 15.08851411 42014,6917.846,95.437,540.581,538.84,0.0
53724.0,STARLINK-4663,PAYLOAD,2023-06-07 19:34:17,15.08837026,0.0001167,53.2168,89.4595,83.7248,276.3877,3.5906e-05,2.84e-06,0.0,0 STARLINK-4663,1 53724U 22107AA  23158.81547535  .00000284  00000-0  35906-4 0  9991,2 53724  53.2168  89.4595 0001167  83.7248 276.3877 15.08837026 42562,6917.889,95.438,540.562,538.947,0.0
53724.0,STARLINK-4663,PAYLOAD,2023-06-08 01:55:49,15.08839446,0.0001146,53.2168,88.2703,92.4884,267.6239,5.376e-05,5.68e-06,0.0,0 STARLINK-4663,1 53724U 22107AA  23159.08043320  .00000568  00000-0  53760-4 0  9997,2 53724  53.2168  88.2703 0001146  92.4884 267.6239 15.08839446 42147,6917.882,95.438,540.54,538.954,0.0
53724.0,STARLINK-4663,PAYLOAD,2023-06-09 11:18:55,15.08840473,0.0001172,53.2169,82.0259,104.9452,255.167,-3.8135e-05,-8.95e-06,0.0,0 STARLINK-4663,1 53724U 22107AA  23160.47147598 -.00000895  00000-0 -38135-4 0  9998,2 53724  53.2169  82.0259 0001172 104.9452 255.1670 15.08840473 42812,6917.879,95.438,540.555,538.933,0.0
53724.0,STARLINK-4663,PAYLOAD,2023-06-10 11:09:42,15.08835876,0.0001119,53.2169,77.5641,90.7308,269.3812,6.1776e-05,6.95e-06,0.0,0 STARLINK-4663,1 53724U 22107AA  23161.46507909  .00000695  00000-0  61776-4 0  9997,2 53724  53.2169  77.5641 0001119  90.7308 269.3812 15.08835876 42961,6917.893,95.438,540.532,538.984,0.0
53724.0,STARLINK-4663,PAYLOAD,2023-06-11 03:03:34,15.08838618,0.0001334,53.2179,74.5935,101.3856,258.7286,6.5694e-05,7.58e-06,0.0,0 STARLINK-4663,1 53724U 22107AA  23162.12748025  .00000758  00000-0  65694-4 0  9990,2 53724  53.2179  74.5935 0001334 101.3856 258.7286 15.08838618 42606,6917.885,95.438,540.672,538.827,0.0
53724.0,STARLINK-4663,PAYLOAD,2023-06-11 11:00:30,15.08836919,0.0001322,53.2182,73.1077,99.3262,260.7879,7.9168e-05,9.72e-06,0.0,0 STARLINK-4663,1 53724U 22107AA  23162.45868196  .00000972  00000-0  79168-4 0  9997,2 53724  53.2182  73.1077 0001322  99.3262 260.7879 15.08836919 43116,6917.89,95.438,540.669,538.84,0.0
53724.0,STARLINK-4663,PAYLOAD,2023-06-12 10:51:17,15.08841458,0.000126,53.2181,68.6465,90.3696,269.744,3.5359e-05,2.75e-06,0.0,0 STARLINK-4663,1 53724U 22107AA  23163.45228148  .00000275  00000-0  35359-4 0  9995,2 53724  53.2181  68.6465 0001260  90.3696 269.7440 15.08841458 43261,6917.876,95.437,540.613,538.869,0.0
53724.0,STARLINK-4663,PAYLOAD,2023-06-13 02:45:08,15.08839868,0.0001223,53.2178,65.6722,83.5216,276.5915,2.6076e-05,1.27e-06,0.0,0 STARLINK-4663,1 53724U 22107AA  23164.11468365  .00000127  00000-0  26076-4 0  9998,2 53724  53.2178  65.6722 0001223  83.5216 276.5915 15.08839868 43367,6917.881,95.438,540.592,538.9,0.0
53724.0,STARLINK-4663,PAYLOAD,2023-06-13 23:25:09,15.08842305,0.0001277,53.218,61.8055,82.2798,277.8339,9.4288e-05,1.213e-05,0.0,0 STARLINK-4663,1 53724U 22107AA  23164.97579935  .00001213  00000-0  94288-4 0  9995,2 53724  53.2180  61.8055 0001277  82.2798 277.8339 15.08842305 43035,6917.873,95.437,540.622,538.855,0.0
53724.0,STARLINK-4663,PAYLOAD,2023-06-14 02:35:55,15.08843895,0.000133,53.218,61.2111,87.9823,272.1321,7.5482e-05,9.14e-06,0.0,0 STARLINK-4663,1 53724U 22107AA  23165.10827899  .00000914  00000-0  75482-4 0  9998,2 53724  53.2180  61.2111 0001330  87.9823 272.1321 15.08843895 43510,6917.868,95.437,540.654,538.813,0.0
53724.0,STARLINK-4663,PAYLOAD,2023-06-15 02:26:42,15.08841447,0.0001268,53.2174,56.7502,100.0589,260.0546,9.4492e-06,-1.37e-06,0.0,0 STARLINK-4663,1 53724U 22107AA  23166.10188179 -.00000137  00000-0  94492-5 0  9991,2 53724  53.2174  56.7502 0001268 100.0589 260.0546 15.08841447 43204,6917.876,95.437,540.618,538.864,0.0
53724.0,STARLINK-4663,PAYLOAD,2023-06-15 16:45:11,15.08842821,0.0001303,53.2178,54.074,93.3899,266.7243,-4.6372e-05,-1.026e-05,0.0,0 STARLINK-4663,1 53724U 22107AA  23166.69804432 -.00001026  00000-0 -46372-4 0  9994,2 53724  53.2178  54.0740 0001303  93.3899 266.7243 15.08842821 43755,6917.872,95.437,540.638,538.835,0.0
53724.0,STARLINK-4663,PAYLOAD,2023-06-16 02:17:29,15.08844961,0.000126,53.2171,52.2886,104.0675,256.0457,9.6957e-05,1.256e-05,0.0,0 STARLINK-4663,1 53724U 22107AA  23167.09547627  .00001256  00000-0  96957-4 0  9996,2 53724  53.2171  52.2886 0001260 104.0675 256.0457 15.08844961 43816,6917.865,95.437,540.602,538.859,0.0
53724.0,STARLINK-4663,PAYLOAD,2023-06-17 02:08:15,15.08851231,0.0001182,53.2171,47.8291,93.3651,266.7476,0.0001573,2.217e-05,0.0,0 STARLINK-4663,1 53724U 22107AA  23168.08906881  .00002217  00000-0  15730-3 0  9994,2 53724  53.2171  47.8291 0001182  93.3651 266.7476 15.08851231 43506,6917.846,95.437,540.529,538.893,0.0
53724.0,STARLINK-4663,PAYLOAD,2023-06-17 08:29:49,15.08828552,0.0001725,53.2167,46.6377,91.5116,268.6074,-2.4337e-05,-6.75e-06,0.0,0 STARLINK-4663,1 53724U 22107AA  23168.35405059 -.00000675  00000-0 -24337-4 0  9997,2 53724  53.2167  46.6377 0001725  91.5116 268.6074 15.08828552 43541,6917.915,95.438,540.974,538.587,0.0
53724.0,STARLINK-4663,PAYLOAD,2023-06-17 14:51:22,15.08827387,0.0001867,53.2168,45.4483,93.5462,266.5744,-3.1211e-05,-7.85e-06,0.0,0 STARLINK-4663,1 53724U 22107AA  23168.61901370 -.00000785  00000-0 -31211-4 0  9994,2 53724  53.2168  45.4483 0001867  93.5462 266.5744 15.08827387 44042,6917.919,95.438,541.076,538.492,0.0
53724.0,STARLINK-4663,PAYLOAD,2023-06-17 22:48:18,15.08829745,0.0001745,53.2169,43.9617,102.4483,257.6704,-7.1757e-05,-1.43e-05,0.0,0 STARLINK-4663,1 53724U 22107AA  23168.95021465 -.00001430  00000-0 -71757-4 0  9996,2 53724  53.2169  43.9617 0001745 102.4483 257.6704 15.08829745 44095,6917.912,95.438,540.984,538.57,0.0
